RADUGA 1 [-]            
1 08513U 75123A   22268.10503012  .00000003  00000+0  00000+0 0  9998
2 08513   6.3036 287.1997 0008239 218.8971 319.8045  1.00272499181169
RADUGA 2 [-]            
1 09416U 76092A   22268.10773333 -.00000132  00000+0  00000+0 0  9996
2 09416   6.9669 289.1880 0026163 357.7289 193.7131  1.00297933115694
RADUGA 3 [-]            
1 10159U 77071A   22268.47068865 -.00000295  00000+0  00000+0 0  9997
2 10159   7.5816 291.7812 0009883 236.4764 104.1774  1.00206931163393
RADUGA 4 [-]            
1 10987U 78073A   22268.17199997  .00000133  00000+0  00000+0 0  9997
2 10987   8.2079 295.3009 0007743 355.0711 175.7161  1.00298163105952
RADUGA 5 [-]            
1 11343U 79035A   22268.10895413 -.00000189  00000+0  00000+0 0  9994
2 11343   8.6674 298.0631 0007031 176.6568  12.8640  1.00260748115707
RADUGA 6 [-]            
1 11708U 80016A   22268.10572772 -.00000045  00000+0  00000+0 0  9991
2 11708   9.0280 301.1369 0003607 205.4547 322.8297  1.00342404108510
RADUGA 7 [-]            
1 12003U 80081A   22268.40188421 -.00000209  00000+0  00000+0 0  9991
2 12003   9.2117 303.0845 0010362 259.4998 279.7079  1.00285101109660
RADUGA 8 [-]            
1 12351U 81027A   22268.52014024 -.00000369  00000+0  00000+0 0  9995
2 12351   9.5428 303.6717 0083165 229.9644 128.1910  1.00397490108888
RADUGA 9 [-]            
1 12618U 81069A   22268.17592399  .00000018  00000+0  00000+0 0  9994
2 12618   9.7639 306.6387 0004614 163.6308  16.9021  1.00349319 33699
RADUGA 10 [-]           
1 12897U 81102A   22268.10895413 -.00000195  00000+0  00000+0 0  9994
2 12897   9.8497 307.6182 0006543 183.1157 356.7475  1.00283068103691
RADUGA 11 [-]           
1 13669U 82113A   22268.43369448 -.00000140  00000+0  00000+0 0  9995
2 13669  11.8988 321.3445 0038431 254.3828 135.6819  0.97709747108243
RADUGA 12 [-]           
1 13974U 83028A   22267.86382718 -.00000036  00000+0  00000+0 0  9995
2 13974  10.9974 317.3913 0002800 133.8773 290.7300  1.00287110155737
RADUGA 13 [-]           
1 14307U 83088A   22267.94510470 -.00000191  00000+0  00000+0 0  9991
2 14307  12.1494 322.8930 0014369  46.5443 316.4986  0.98175671105584
RADUGA 14 [-]           
1 14725U 84016A   22267.87958819 -.00000213  00000+0  00000+0 0  9997
2 14725  11.2062 321.1574 0005847 148.4326 297.2588  1.00267774104457
RADUGA 15 [-]           
1 15057U 84063A   22268.53059233 -.00000358  00000+0  00000+0 0  9994
2 15057  11.3277 322.1404 0006586 162.6055 197.8414  1.00297204127455
RADUGA 16 [-]           
1 15946U 85070A   22268.43088141  .00000094  00000+0  00000+0 0  9995
2 15946  11.7932 326.8097 0003050 167.6818 215.1742  1.00296412108589
RADUGA 17 [-]           
1 16250U 85107A   22268.18925674 -.00000202  00000+0  00000+0 0  9990
2 16250  11.9177 328.2010 0015585 182.5872 196.7142  1.00132345138174
RADUGA 18 [-]           
1 16497U 86007A   22267.74055424  .00000047  00000+0  00000+0 0  9997
2 16497  12.7279 330.9176 0076468 166.7298 193.3532  0.98810676132407
RADUGA 19 [-]           
1 17046U 86082A   22268.01582417 -.00000212  00000+0  00000+0 0  9994
2 17046  13.1591 334.8496 0014500 151.9049 219.9823  0.98462077129511
RADUGA 20 [-]           
1 17611U 87028A   22267.87625065 -.00000070  00000+0  00000+0 0  9995
2 17611  15.1759 338.3688 0031415 139.7926 284.8473  0.95960818125253
RADUGA 21 [-]           
1 18631U 87100A   22268.37142257  .00000115  00000+0  00000+0 0  9991
2 18631  13.2477 335.6887 0004248 136.9994 231.7867  1.00300569127440
RADUGA 22 [-]           
1 19596U 88095A   22268.53088413 -.00000366  00000+0  00000+0 0  9996
2 19596  13.2345 339.9855 0008341 143.2067 195.1055  1.00213710108001
RADUGA 23 [-]           
1 19928U 89030A   22267.95512236  .00000105  00000+0  00000+0 0  9995
2 19928  13.3855 341.8098 0023003 164.3951 247.4778  1.00340785121209
RADUGA-1 1 [-]          
1 20083U 89048A   22268.25813385  .00000014  00000+0  00000+0 0  9990
2 20083  14.1403 344.8728 0023231 117.5975 248.8270  0.98707031117847
RADUGA 24 [-]           
1 20367U 89098A   22267.66374125  .00000050  00000+0  00000+0 0  9998
2 20367  13.9616 344.0704 0002834 143.3869 173.2681  1.00217597119314
RADUGA 25 [-]           
1 20499U 90016A   22268.22321584 -.00000260  00000+0  00000+0 0  9994
2 20499  13.7312 344.7217 0006518 146.8638 239.5239  1.00181152119268
RADUGA 26 [-]           
1 21016U 90112A   22267.90982559 -.00000058  00000+0  00000+0 0  9991
2 21016  14.0486 347.9795 0007878  99.7094 312.6157  1.00320384116618
RADUGA-1 2 [-]          
1 21038U 90116A   22267.81646602  .00000096  00000+0  00000+0 0  9996
2 21038  14.0867 348.0525 0009349 106.6218 251.8493  1.00279183116256
RADUGA 27 [-]           
1 21132U 91014A   22268.41368875  .00000098  00000+0  00000+0 0  9991
2 21132  14.5957 347.5862 0004478 113.0967  71.5298  1.00291417115663
RADUGA 28 [-]           
1 21821U 91087A   22267.88684567 -.00000247  00000+0  00000+0 0  9992
2 21821  14.3662 351.3205 0008801 129.8933 294.4340  1.00191545112678
RADUGA 29 [-]           
1 22557U 93013A   22267.93710942  .00000120  00000+0  00000+0 0  9992
2 22557  14.5763 355.4954 0007842 117.3148 268.7538  1.00358760108031
RADUGA 30 [-]           
1 22836U 93062A   22267.86759420 -.00000093  00000+0  00000+0 0  9992
2 22836  14.6189 357.4708 0000955  59.0689 333.6276  1.00258903 32353
RADUGA-1 3 [-]          
1 22981U 94008A   22267.88919968 -.00000275  00000+0  00000+0 0  9993
2 22981  14.6980 358.6199 0005000 116.7542 303.5810  1.00236661104835
RADUGA 31 [-]           
1 23010U 94012A   22267.86068890 -.00000012  00000+0  00000+0 0  9998
2 23010  14.6676 358.6181 0006463 102.4275 275.9146  1.00334723104709
RADUGA 32 [-]           
1 23448U 94087A   22267.93791017 -.00000101  00000+0  00000+0 0  9996
2 23448  14.6527   1.3310 0005484 190.2332 224.7422  1.00260929119235
RADUGA-1 4 [-]          
1 25642U 99010A   22267.94979787  .00000121  00000+0  00000+0 0  9999
2 25642  15.2315  12.9033 0001939 209.4650 164.1814  1.00312972 86301
RADUGA-1 5 [-]          
1 26477U 00049A   22267.95757435  .00000116  00000+0  00000+0 0  9999
2 26477  13.1846  17.7867 0005831  74.9634 300.4749  1.00290129 80770
RADUGA-1 6 [-]          
1 26936U 01045A   22268.36119743 -.00000063  00000+0  00000+0 0  9998
2 26936  13.3574  24.1080 0016976 162.4009 226.7657  0.97743956 75307
RADUGA-1 7 [-]          
1 28194U 04010A   22268.53500263 -.00000363  00000+0  00000+0 0  9994
2 28194  12.0836  30.9335 0002521 151.0033 137.8536  1.00228033 67771
RADUGA-1M 1 [-]         
1 32373U 07058A   22268.55968269  .00000089  00000+0  00000+0 0  9993
2 32373   7.1136  63.3448 0003170  46.3678 332.1685  0.99394120 38872
RADUGA-1 8 [-]          
1 34264U 09010A   22268.37802854 -.00000267  00000+0  00000+0 0  9990
2 34264   9.4201  53.3278 0013991   7.2540  23.3966  0.99824121 49598
RADUGA-1M 2 [+]         
1 36358U 10002A   22268.46789823 -.00000184  00000+0  00000+0 0  9997
2 36358   0.0976 112.3970 0000956 195.0831 310.2770  1.00270946 36445
RADUGA-1M 3 [+]         
1 39375U 13062A   22267.62406098  .00000156  00000+0  00000+0 0  9993
2 39375   2.4777  88.5828 0002045 152.3482  22.1966  1.00273183 32478
